STARLINK-3874           
1 52365U 22045AL  26068.52793145 -.00000377  00000+0 -56195-5 0  9991
2 52365  53.2159 189.8483 0001337  81.4081 278.7063 15.08840357215894
2023-069B               
1 56732U 23069B   26068.54706144  .00006772  00000+0  42420-3 0  9992
2 56732  41.0081 274.4606 0011652 279.7432  80.2064 15.09579619155167
